KUIPER-00008            
1 63724U 25088A   26060.38046845 -.00044070  00000+0 -36483-2 0  9999
2 63724  51.8902 124.8832 0009784  67.0812 293.1190 14.98431511 46810
KUIPER-00009            
1 63725U 25088B   26060.47674618  .00006647  00000+0  89784-3 0  9994
2 63725  51.9019 142.9539 0008707  73.4187 286.7731 14.80023553 46561
KUIPER-00010            
1 63726U 25088C   26060.46899653  .00002091  00000+0  30323-3 0  9996
2 63726  51.9020 119.4439 0000600  77.9758 282.1272 14.79933105 46515
KUIPER-00011            
1 63727U 25088D   26060.49446216  .00005107  00000+0  69715-3 0  9991
2 63727  51.8999 126.8949 0000387  67.5756 292.5248 14.80006562 46544
KUIPER-00012            
1 63728U 25088E   26057.44119412  .00004696  00000+0  64295-3 0  9998
2 63728  51.9004 125.3508 0000850  14.9772 345.1215 14.80041582 46255
KUIPER-00013            
1 63729U 25088F   26060.47559816 -.00021361  00000+0 -27866-2 0  9994
2 63729  51.9023 144.4182 0002865  22.4628 337.6459 14.79856471 46355
KUIPER-00014            
1 63730U 25088G   26060.40654051  .00006964  00000+0  94110-3 0  9993
2 63730  51.9004 145.6940 0000330  33.7543 326.3440 14.79953780 46140
KUIPER-00015            
1 63731U 25088H   26060.50471921  .00006718  00000+0  83450-3 0  9990
2 63731  51.8996 154.7387 0009658  48.7103 311.4691 14.83541705 46481
KUIPER-00016            
1 63732U 25088J   26060.47135832  .00006273  00000+0  84904-3 0  9996
2 63732  51.9003 147.9393 0006930  47.6853 312.4695 14.80029983 46114
KUIPER-00018            
1 63733U 25088K   26058.93068030 -.00003194  00000+0 -38960-3 0  9992
2 63733  51.9016 143.7191 0010070  61.2509 298.9463 14.79909676 46046
KUIPER-00019            
1 63734U 25088L   26060.41741401  .00001742  00000+0  25743-3 0  9999
2 63734  51.9008 135.6765 0000844 106.0736 254.0320 14.79937886 46288
KUIPER-00020            
1 63735U 25088M   26060.41357741 -.00003490  00000+0 -42855-3 0  9997
2 63735  51.9027 139.6859 0006997  60.7848 299.3813 14.79936256 46439
KUIPER-00021            
1 63736U 25088N   26060.41206424  .00006417  00000+0  87093-3 0  9992
2 63736  51.9014 140.6889 0003512  66.3073 293.8258 14.79885559 46254
KUIPER-00023            
1 63737U 25088P   26060.41090585  .00005927  00000+0  80437-3 0  9992
2 63737  51.9006 142.1539 0008665  73.8512 286.3404 14.79994658 46532
KUIPER-00024            
1 63738U 25088Q   26060.49196509  .00002888  00000+0  40760-3 0  9992
2 63738  51.9031 129.3612 0000591  95.4809 264.6221 14.79938112 46842
KUIPER-00025            
1 63739U 25088R   26060.50003471 -.00018643  00000+0 -22257-2 0  9998
2 63739  51.9021 137.7705 0000471  64.9230  63.8546 14.83460817  4169
KUIPER-00027            
1 63740U 25088S   26060.48923142  .00005689  00000+0  77406-3 0  9994
2 63740  51.9010 131.8461 0000608  80.7001 279.4030 14.79966290 46404
KUIPER-00028            
1 63741U 25088T   26060.39069184  .00010470  00000+0  14011-2 0  9998
2 63741  51.9020 129.7536 0000808 119.3415 240.7628 14.79909187 46838
KUIPER-00029            
1 63742U 25088U   26060.47934590  .00006281  00000+0  78181-3 0  9994
2 63742  51.9017 127.0955 0000739  97.7670 262.3378 14.83565994 46400
KUIPER-00030            
1 63743U 25088V   26060.47314392  .00009331  00000+0  12483-2 0  9998
2 63743  51.9015 146.8798 0010644  46.3326 313.8517 14.80004138 46410
KUIPER-00031            
1 63744U 25088W   26060.48643769  .00006562  00000+0  81570-3 0  9990
2 63744  51.8999 132.1766 0002367 121.1184 239.0012 14.83561110 46332
KUIPER-00032            
1 63745U 25088X   26060.41161923  .00019572  00000+0  54170-3 0  9992
2 63745  51.8692  64.2428 0005157  83.8199 276.3375 15.36988088 48270
KUIPER-00033            
1 63746U 25088Y   26060.46984933  .00006144  00000+0  76940-3 0  9992
2 63746  51.9014 162.4045 0000743  42.0326 318.0695 14.83349286 46393
KUIPER-00034            
1 63747U 25088Z   26060.42548064  .00004700  00000+0  59289-3 0  9993
2 63747  51.9013 124.9442 0001684 328.8599  31.2265 14.83513525 46597
KUIPER-00035            
1 63748U 25088AA  26057.76719934  .00220401  00000+0  27548-1 0  9992
2 63748  51.9004 162.4147 0003376  48.7882 311.3371 14.80622464 45892
KUIPER-00037            
1 63749U 25088AB  26060.47031001  .00006486  00000+0  87946-3 0  9992
2 63749  51.8996 149.4050 0000679  62.3832 297.7199 14.79910439 47099
KUIPER-00038            
1 63750U 25088AC  26060.41906954 -.00000755  00000+0 -70080-4 0  9993
2 63750  51.9023 134.6622 0001197  99.9676 260.1421 14.79870797 46297
KUIPER-00039            
1 64500U 25134A   26060.45926217  .00003942  00000+0  54609-3 0  9994
2 64500  51.9002 269.4877 0001002  60.1614 299.9448 14.79907149 38858
KUIPER-00040            
1 64501U 25134B   26060.04155948  .00007327  00000+0  98779-3 0  9992
2 64501  51.8993 282.4769 0013459 235.9039 124.0647 14.79942934 38630
KUIPER-00041            
1 64502U 25134C   26060.04324865  .00003480  00000+0  49964-3 0  9997
2 64502  51.8984 283.8487 0007106 236.0764 123.9523 14.78678975 38611
