OBJECT_NAME,OBJECT_ID,EPOCH,MEAN_MOTION,ECCENTRICITY,INCLINATION,RA_OF_ASC_NODE,ARG_OF_PERICENTER,MEAN_ANOMALY,EPHEMERIS_TYPE,CLASSIFICATION_TYPE,NORAD_CAT_ID,ELEMENT_SET_NO,REV_AT_EPOCH,BSTAR,MEAN_MOTION_DOT,MEAN_MOTION_DDOT
KUIPER-00008,2025-088A,2026-03-01T09:07:52.474080,14.98431511,.0009784,51.8902,124.8832,67.0812,293.1190,0,U,63724,999,4681,-.36483E-2,-.4407E-3,0
KUIPER-00009,2025-088B,2026-03-01T11:26:30.869952,14.80023553,.0008707,51.9019,142.9539,73.4187,286.7731,0,U,63725,999,4656,.89784E-3,.6647E-4,0
KUIPER-00010,2025-088C,2026-03-01T11:15:21.300192,14.79933105,.00006,51.9020,119.4439,77.9758,282.1272,0,U,63726,999,4651,.30323E-3,.2091E-4,0
KUIPER-00011,2025-088D,2026-03-01T11:52:01.530624,14.80006562,.0000387,51.8999,126.8949,67.5756,292.5248,0,U,63727,999,4654,.69715E-3,.5107E-4,0
KUIPER-00012,2025-088E,2026-02-26T10:35:19.171968,14.80041582,.000085,51.9004,125.3508,14.9772,345.1215,0,U,63728,999,4625,.64295E-3,.4696E-4,0
KUIPER-00013,2025-088F,2026-03-01T11:24:51.681024,14.79856471,.0002865,51.9023,144.4182,22.4628,337.6459,0,U,63729,999,4635,-.27866E-2,-.21361E-3,0
KUIPER-00014,2025-088G,2026-03-01T09:45:25.100064,14.79953780,.000033,51.9004,145.6940,33.7543,326.3440,0,U,63730,999,4614,.9411E-3,.6964E-4,0
KUIPER-00015,2025-088H,2026-03-01T12:06:47.739744,14.83541705,.0009658,51.8996,154.7387,48.7103,311.4691,0,U,63731,999,4648,.8345E-3,.6718E-4,0
KUIPER-00016,2025-088J,2026-03-01T11:18:45.358848,14.80029983,.000693,51.9003,147.9393,47.6853,312.4695,0,U,63732,999,4611,.84904E-3,.6273E-4,0
KUIPER-00018,2025-088K,2026-02-27T22:20:10.777920,14.79909676,.001007,51.9016,143.7191,61.2509,298.9463,0,U,63733,999,4604,-.3896E-3,-.3194E-4,0
KUIPER-00019,2025-088L,2026-03-01T10:01:04.570464,14.79937886,.0000844,51.9008,135.6765,106.0736,254.0320,0,U,63734,999,4628,.25743E-3,.1742E-4,0
KUIPER-00020,2025-088M,2026-03-01T09:55:33.088224,14.79936256,.0006997,51.9027,139.6859,60.7848,299.3813,0,U,63735,999,4643,-.42855E-3,-.349E-4,0
KUIPER-00021,2025-088N,2026-03-01T09:53:22.350336,14.79885559,.0003512,51.9014,140.6889,66.3073,293.8258,0,U,63736,999,4625,.87093E-3,.6417E-4,0
KUIPER-00023,2025-088P,2026-03-01T09:51:42.265440,14.79994658,.0008665,51.9006,142.1539,73.8512,286.3404,0,U,63737,999,4653,.80437E-3,.5927E-4,0
KUIPER-00024,2025-088Q,2026-03-01T11:48:25.783776,14.79938112,.0000591,51.9031,129.3612,95.4809,264.6221,0,U,63738,999,4684,.4076E-3,.2888E-4,0
KUIPER-00025,2025-088R,2026-03-01T12:00:02.998944,14.83460817,.0000471,51.9021,137.7705,64.9230,63.8546,0,U,63739,999,416,-.22257E-2,-.18643E-3,0
KUIPER-00027,2025-088S,2026-03-01T11:44:29.594688,14.79966290,.0000608,51.9010,131.8461,80.7001,279.4030,0,U,63740,999,4640,.77406E-3,.5689E-4,0
KUIPER-00028,2025-088T,2026-03-01T09:22:35.774976,14.79909187,.0000808,51.9020,129.7536,119.3415,240.7628,0,U,63741,999,4683,.14011E-2,.1047E-3,0
KUIPER-00029,2025-088U,2026-03-01T11:30:15.485760,14.83565994,.0000739,51.9017,127.0955,97.7670,262.3378,0,U,63742,999,4640,.78181E-3,.6281E-4,0
KUIPER-00030,2025-088V,2026-03-01T11:21:19.634688,14.80004138,.0010644,51.9015,146.8798,46.3326,313.8517,0,U,63743,999,4641,.12483E-2,.9331E-4,0
KUIPER-00031,2025-088W,2026-03-01T11:40:28.216416,14.83561110,.0002367,51.8999,132.1766,121.1184,239.0012,0,U,63744,999,4633,.8157E-3,.6562E-4,0
KUIPER-00032,2025-088X,2026-03-01T09:52:43.901472,15.36988088,.0005157,51.8692,64.2428,83.8199,276.3375,0,U,63745,999,4827,.5417E-3,.19572E-3,0
KUIPER-00033,2025-088Y,2026-03-01T11:16:34.982112,14.83349286,.0000743,51.9014,162.4045,42.0326,318.0695,0,U,63746,999,4639,.7694E-3,.6144E-4,0
KUIPER-00034,2025-088Z,2026-03-01T10:12:41.527296,14.83513525,.0001684,51.9013,124.9442,328.8599,31.2265,0,U,63747,999,4659,.59289E-3,.47E-4,0
KUIPER-00035,2025-088AA,2026-02-26T18:24:46.022976,14.80622464,.00033761,51.9004,162.4147,48.7882,311.3371,0,U,63748,999,4589,.27547689E-1,.220401E-2,0
KUIPER-00037,2025-088AB,2026-03-01T11:17:14.784864,14.79910439,.0000679,51.8996,149.4050,62.3832,297.7199,0,U,63749,999,4709,.87946E-3,.6486E-4,0
KUIPER-00038,2025-088AC,2026-03-01T10:03:27.608256,14.79870797,.0001197,51.9023,134.6622,99.9676,260.1421,0,U,63750,999,4629,-.7008E-4,-.755E-5,0
KUIPER-00039,2025-134A,2026-03-01T11:01:20.251488,14.79907149,.0001002,51.9002,269.4877,60.1614,299.9448,0,U,64500,999,3885,.54609E-3,.3942E-4,0
KUIPER-00040,2025-134B,2026-03-01T00:59:50.739072,14.79942934,.00134595,51.8993,282.4769,235.9039,124.0647,0,U,64501,999,3863,.98779419E-3,.7327E-4,0
KUIPER-00041,2025-134C,2026-03-01T01:02:16.683360,14.78678975,.0007106,51.8984,283.8487,236.0764,123.9523,0,U,64502,999,3861,.49963777E-3,.348E-4,0
